NORAD_CAT_ID,OBJECT_NAME,OBJECT_TYPE,EPOCH,MEAN_MOTION,ECCENTRICITY,INCLINATION,RA_OF_ASC_NODE,ARG_OF_PERICENTER,MEAN_ANOMALY,BSTAR,MEAN_MOTION_DOT,MEAN_MOTION_DDOT,TLE_LINE0,TLE_LINE1,TLE_LINE2,SEMIMAJOR_AXIS,PERIOD,APOGEE,PERIGEE,DECAYED
53138.0,STARLINK-4141,PAYLOAD,2024-02-19 19:48:54,15.08830201,0.0001455,53.2181,291.0874,100.3816,259.734,-8.6382e-06,-4.25e-06,0.0,0 STARLINK-4141,1 53138U 22083G   24050.82562936 -.00000425  00000-0 -86382-5 0  9992,2 53138  53.2181 291.0874 0001455 100.3816 259.7340 15.08830201 88854,6917.91,95.438,540.782,538.769,0.0
53138.0,STARLINK-4141,PAYLOAD,2024-02-19 22:59:40,15.08830298,0.0001326,53.2177,290.4934,99.3832,260.731,2.5315e-05,1.15e-06,0.0,0 STARLINK-4141,1 53138U 22083G   24050.95810842  .00000115  00000-0  25315-4 0  9990,2 53138  53.2177 290.4934 0001326  99.3832 260.7310 15.08830298 89026,6917.91,95.438,540.692,538.858,0.0
53138.0,STARLINK-4141,PAYLOAD,2024-02-20 08:31:59,15.08834182,0.0001419,53.2179,288.709,101.8143,258.3008,4.322e-06,-2.19e-06,0.0,0 STARLINK-4141,1 53138U 22083G   24051.35554806 -.00000219  00000-0  43220-5 0  9992,2 53138  53.2179 288.7090 0001419 101.8143 258.3008 15.08834182 89087,6917.898,95.438,540.745,538.782,0.0
53138.0,STARLINK-4141,PAYLOAD,2024-02-20 19:39:41,15.0883705,0.0001317,53.2181,286.6285,101.8225,258.2914,4.1597e-05,3.74e-06,0.0,0 STARLINK-4141,1 53138U 22083G   24051.81922705  .00000374  00000-0  41597-4 0  9995,2 53138  53.2181 286.6285 0001317 101.8225 258.2914 15.08837050 89005,6917.889,95.438,540.665,538.843,0.0
53138.0,STARLINK-4141,PAYLOAD,2024-02-20 21:15:04,15.08838159,0.0001458,53.2178,286.3312,106.5816,253.5336,4.1919e-05,3.79e-06,0.0,0 STARLINK-4141,1 53138U 22083G   24051.88546634  .00000379  00000-0  41919-4 0  9998,2 53138  53.2178 286.3312 0001458 106.5816 253.5336 15.08838159 89167,6917.886,95.438,540.76,538.742,0.0
53138.0,STARLINK-4141,PAYLOAD,2024-02-21 08:22:46,15.08843471,0.0001427,53.2179,284.2487,98.8133,261.3021,6.3695e-06,-1.87e-06,0.0,0 STARLINK-4141,1 53138U 22083G   24052.34914451 -.00000187  00000-0  63695-5 0  9990,2 53138  53.2179 284.2487 0001427  98.8133 261.3021 15.08843471 89238,6917.87,95.437,540.722,538.748,0.0
53138.0,STARLINK-4141,PAYLOAD,2024-02-21 22:41:14,15.08839418,0.0001363,53.217,281.5727,101.4977,258.6168,8.6607e-05,1.091e-05,0.0,0 STARLINK-4141,1 53138U 22083G   24052.94530599  .00001091  00000-0  86607-4 0  9994,2 53138  53.2170 281.5727 0001363 101.4977 258.6168 15.08839418 89329,6917.882,95.438,540.69,538.804,0.0
53138.0,STARLINK-4141,PAYLOAD,2024-02-22 08:13:33,15.08839385,0.0001313,53.2167,279.7877,96.5424,263.5718,9.4147e-05,1.211e-05,0.0,0 STARLINK-4141,1 53138U 22083G   24053.34274597  .00001211  00000-0  94147-4 0  9994,2 53138  53.2167 279.7877 0001313  96.5424 263.5718 15.08839385 89381,6917.882,95.438,540.656,538.839,0.0
53138.0,STARLINK-4141,PAYLOAD,2024-02-22 19:21:13,15.08915234,0.0001801,53.2169,277.7052,75.0312,285.0879,-0.00094049,-0.00015256,0.0,0 STARLINK-4141,1 53138U 22083G   24053.80640447 -.00015256  00000-0 -94049-3 0  9992,2 53138  53.2169 277.7052 0001801  75.0312 285.0879 15.08915234 89303,6917.65,95.433,540.761,538.27,0.0
53138.0,STARLINK-4141,PAYLOAD,2024-02-22 22:32:01,15.08854843,0.0001256,53.2167,277.1115,92.4977,267.6159,-7.2438e-05,-1.441e-05,0.0,0 STARLINK-4141,1 53138U 22083G   24053.93890096 -.00001441  00000-0 -72438-4 0  9993,2 53138  53.2167 277.1115 0001256  92.4977 267.6159 15.08854843 89472,6917.835,95.437,540.569,538.831,0.0
53138.0,STARLINK-4141,PAYLOAD,2024-02-23 08:04:20,15.08841676,0.0001331,53.2173,275.3262,85.5978,274.5167,1.3895e-05,-6.7e-07,0.0,0 STARLINK-4141,1 53138U 22083G   24054.33634586 -.00000067  00000-0  13895-4 0  9992,2 53138  53.2173 275.3262 0001331  85.5978 274.5167 15.08841676 89386,6917.875,95.437,540.661,538.819,0.0
53138.0,STARLINK-4141,PAYLOAD,2024-02-23 14:25:52,15.08838703,0.0001356,53.2169,274.136,86.9987,273.1161,8.8574e-06,-1.47e-06,0.0,0 STARLINK-4141,1 53138U 22083G   24054.60130754 -.00000147  00000-0  88574-5 0  9996,2 53138  53.2169 274.1360 0001356  86.9987 273.1161 15.08838703 89576,6917.884,95.438,540.687,538.811,0.0
53138.0,STARLINK-4141,PAYLOAD,2024-02-23 20:47:25,15.08838373,0.0001309,53.2163,272.9464,89.3891,270.7251,1.2408e-05,-9e-07,0.0,0 STARLINK-4141,1 53138U 22083G   24054.86626796 -.00000090  00000-0  12408-4 0  9999,2 53138  53.2163 272.9464 0001309  89.3891 270.7251 15.08838373 89611,6917.885,95.438,540.656,538.845,0.0
53138.0,STARLINK-4141,PAYLOAD,2024-02-24 07:55:07,15.08839111,0.0001275,53.2162,270.8637,92.1955,267.9183,-6.894e-06,-3.98e-06,0.0,0 STARLINK-4141,1 53138U 22083G   24055.32994767 -.00000398  00000-0 -68940-5 0  9992,2 53138  53.2162 270.8637 0001275  92.1955 267.9183 15.08839111 89684,6917.883,95.438,540.63,538.866,0.0
53138.0,STARLINK-4141,PAYLOAD,2024-02-24 20:38:12,15.088403,0.000121,53.2161,268.4846,92.3895,267.7236,7.5694e-06,-1.67e-06,0.0,0 STARLINK-4141,1 53138U 22083G   24055.85986625 -.00000167  00000-0  75694-5 0  9991,2 53138  53.2161 268.4846 0001210  92.3895 267.7236 15.08840300 89614,6917.879,95.438,540.582,538.907,0.0
53138.0,STARLINK-4141,PAYLOAD,2024-02-25 14:07:26,15.0884275,0.0001395,53.2147,265.2134,89.1037,271.0115,8.5568e-05,1.074e-05,0.0,0 STARLINK-4141,1 53138U 22083G   24056.58850169  .00001074  00000-0  85568-4 0  9992,2 53138  53.2147 265.2134 0001395  89.1037 271.0115 15.08842750 89872,6917.872,95.437,540.702,538.772,0.0
53138.0,STARLINK-4141,PAYLOAD,2024-02-25 20:28:58,15.08846643,0.0001367,53.2159,264.023,95.1255,264.9893,0.00011347,1.519e-05,0.0,0 STARLINK-4141,1 53138U 22083G   24056.85345763  .00001519  00000-0  11347-3 0  9998,2 53138  53.2159 264.0230 0001367  95.1255 264.9893 15.08846643 89764,6917.86,95.437,540.671,538.779,0.0
53138.0,STARLINK-4141,PAYLOAD,2024-02-26 13:58:14,15.08832078,0.0001269,53.2164,260.7542,90.7102,269.4036,-8.7999e-06,-4.28e-06,0.0,0 STARLINK-4141,1 53138U 22083G   24057.58211339 -.00000428  00000-0 -87999-5 0  9998,2 53138  53.2164 260.7542 0001269  90.7102 269.4036 15.08832078 90029,6917.905,95.438,540.647,538.892,0.0
53138.0,STARLINK-4141,PAYLOAD,2024-02-26 18:44:23,15.08834989,0.0001339,53.2143,259.8617,90.9111,269.2034,-1.0522e-05,-4.55e-06,0.0,0 STARLINK-4141,1 53138U 22083G   24057.78083245 -.00000455  00000-0 -10522-4 0  9990,2 53138  53.2143 259.8617 0001339  90.9111 269.2034 15.08834989 89902,6917.896,95.438,540.687,538.834,0.0
53138.0,STARLINK-4141,PAYLOAD,2024-02-26 23:30:33,15.08838257,0.0001264,53.2159,258.9687,91.3422,268.7715,3.0704e-06,-2.39e-06,0.0,0 STARLINK-4141,1 53138U 22083G   24057.97955053 -.00000239  00000-0  30704-5 0  9990,2 53138  53.2159 258.9687 0001264  91.3422 268.7715 15.08838257 90086,6917.886,95.438,540.625,538.876,0.0
53138.0,STARLINK-4141,PAYLOAD,2024-02-27 20:10:34,15.08840265,0.0001392,53.2164,255.1035,97.0681,263.0469,-2.9292e-05,-7.54e-06,0.0,0 STARLINK-4141,1 53138U 22083G   24058.84067172 -.00000754  00000-0 -29292-4 0  9995,2 53138  53.2164 255.1035 0001392  97.0681 263.0469 15.08840265 90064,6917.88,95.438,540.708,538.782,0.0
53138.0,STARLINK-4141,PAYLOAD,2024-02-27 21:45:57,15.08841439,0.0001381,53.2165,254.8059,95.5801,264.5349,-2.084e-05,-6.2e-06,0.0,0 STARLINK-4141,1 53138U 22083G   24058.90691093 -.00000620  00000-0 -20840-4 0  9999,2 53138  53.2165 254.8059 0001381  95.5801 264.5349 15.08841439 90227,6917.876,95.437,540.696,538.786,0.0
53138.0,STARLINK-4141,PAYLOAD,2024-02-28 13:39:48,15.08835466,0.0001388,53.2165,251.8319,87.1483,272.9668,7.1378e-05,8.48e-06,0.0,0 STARLINK-4141,1 53138U 22083G   24059.56931449  .00000848  00000-0  71378-4 0  9996,2 53138  53.2165 251.8319 0001388  87.1483 272.9668 15.08835466 90324,6917.894,95.438,540.719,538.799,0.0
53138.0,STARLINK-4141,PAYLOAD,2024-02-28 21:36:44,15.08840121,0.0001442,53.2169,250.3458,90.794,269.3218,0.00010568,1.394e-05,0.0,0 STARLINK-4141,1 53138U 22083G   24059.90051135  .00001394  00000-0  10568-3 0  9999,2 53138  53.2169 250.3458 0001442  90.7940 269.3218 15.08840121 90375,6917.88,95.438,540.743,538.747,0.0
53138.0,STARLINK-4141,PAYLOAD,2024-02-29 11:55:12,15.08838971,0.0001452,53.217,247.6699,91.5292,268.5866,9.5649e-05,1.235e-05,0.0,0 STARLINK-4141,1 53138U 22083G   24060.49667326  .00001235  00000-0  95649-4 0  9998,2 53138  53.2170 247.6699 0001452  91.5292 268.5866 15.08838971 90463,6917.884,95.438,540.753,538.744,0.0
53138.0,STARLINK-4141,PAYLOAD,2024-02-29 19:52:08,15.08843403,0.0001423,53.2169,246.1829,91.3081,268.8074,8.1816e-05,1.015e-05,0.0,0 STARLINK-4141,1 53138U 22083G   24060.82787041  .00001015  00000-0  81816-4 0  9999,2 53138  53.2169 246.1829 0001423  91.3081 268.8074 15.08843403 90518,6917.87,95.437,540.719,538.751,0.0
53138.0,STARLINK-4141,PAYLOAD,2024-03-01 11:45:59,15.08841227,0.0001436,53.2168,243.2097,92.3808,267.7349,4.3979e-05,4.12e-06,0.0,0 STARLINK-4141,1 53138U 22083G   24061.49027273  .00000412  00000-0  43979-4 0  9995,2 53138  53.2168 243.2097 0001436  92.3808 267.7349 15.08841227 90463,6917.877,95.437,540.735,538.748,0.0
53138.0,STARLINK-4141,PAYLOAD,2024-03-01 19:42:55,15.0884403,0.0001441,53.2167,241.7221,88.9439,271.1718,3.7031e-05,3.01e-06,0.0,0 STARLINK-4141,1 53138U 22083G   24061.82147080  .00000301  00000-0  37031-4 0  9990,2 53138  53.2167 241.7221 0001441  88.9439 271.1718 15.08844030 90667,6917.868,95.437,540.73,538.736,0.0
53138.0,STARLINK-4141,PAYLOAD,2024-03-02 17:58:18,15.08843285,0.0001362,53.2173,237.5594,90.5466,269.5682,5.9773e-05,6.64e-06,0.0,0 STARLINK-4141,1 53138U 22083G   24062.74882956  .00000664  00000-0  59773-4 0  9999,2 53138  53.2173 237.5594 0001362  90.5466 269.5682 15.08843285 90652,6917.87,95.437,540.678,538.793,0.0
53138.0,STARLINK-4141,PAYLOAD,2024-03-03 14:38:19,15.0884071,0.0001452,53.2163,233.6933,89.147,270.9689,3.2265e-05,2.26e-06,0.0,0 STARLINK-4141,1 53138U 22083G   24063.60995132  .00000226  00000-0  32265-4 0  9997,2 53138  53.2163 233.6933 0001452  89.1470 270.9689 15.08840710 90938,6917.878,95.438,540.748,538.739,0.0
